CTC2_L_00603007-03
1 28139U 23125RG  26037.47799769  .00000000  00000+0  00000-0 0  9991
2 28139  70.0000 180.0000 0000000   0.0000 144.0000  5.94050264    16
CTC2_L_00603007-04
1 28140U 24009MO  26037.47799769  .00000000  00000+0  00000-0 0  9995
2 28140  70.0000 180.0000 0000000   0.0000 180.0000  5.94050264    18
CTC2_L_00603007-05
1 28141U 23095YX  26037.47799769  .00000000  00000+0  00000-0 0  9990
2 28141  70.0000 180.0000 0000000   0.0000 216.0000  5.94050264    19
CTC2_L_00603007-06
1 28142U 25493XQ  26037.47799769  .00000000  00000+0  00000-0 0  9995
2 28142  70.0000 180.0000 0000000   0.0000 252.0000  5.94050264    10
CTC2_L_00603007-07
1 28143U 23576TI  26037.47799769  .00000000  00000+0  00000-0 0  9996
2 28143  70.0000 180.0000 0000000   0.0000 288.0000  5.94050264    10
CTC2_L_00603007-08
1 28144U 25329VL  26037.47799769  .00000000  00000+0  00000-0 0  9995
2 28144  70.0000 180.0000 0000000   0.0000 324.0000  5.94050264    12
CTC2_L_00603007-09
1 28145U 24063XE  26037.47799769  .00000000  00000+0  00000-0 0  9990
2 28145  70.0000 180.0000 0000000   0.0000   0.0000  5.94050264    14
CTC2_L_00603007-10
1 28146U 22538XI  26037.47799769  .00000000  00000+0  00000-0 0  9996
2 28146  70.0000 180.0000 0000000   0.0000  36.0000  5.94050264    14
CTC2_L_00603008-01
1 28147U 24190UM  26037.47799769  .00000000  00000+0  00000-0 0  9993
2 28147  70.0000 210.0000 0000000   0.0000  84.0000  5.94050264    12
CTC2_L_00603008-02
1 28148U 26980FA  26037.47799769  .00000000  00000+0  00000-0 0  9993
2 28148  70.0000 210.0000 0000000   0.0000 120.0000  5.94050264    14
CTC2_L_00603008-03
1 28149U 26083FM  26037.47799769  .00000000  00000+0  00000-0 0  9998
2 28149  70.0000 210.0000 0000000   0.0000 156.0000  5.94050264    14
CTC2_L_00603008-04
1 28150U 24262TF  26037.47799769  .00000000  00000+0  00000-0 0  9997
2 28150  70.0000 210.0000 0000000   0.0000 192.0000  5.94050264    16
CTC2_L_00603008-05
1 28151U 26008LT  26037.47799769  .00000000  00000+0  00000-0 0  9998
2 28151  70.0000 210.0000 0000000   0.0000 228.0000  5.94050264    17
CTC2_L_00603008-06
1 28152U 24869GQ  26037.47799769  .00000000  00000+0  00000-0 0  9992
2 28152  70.0000 210.0000 0000000   0.0000 264.0000  5.94050264    18
CTC2_L_00603008-07
1 28153U 25516QD  26037.47799769  .00000000  00000+0  00000-0 0  9993
2 28153  70.0000 210.0000 0000000   0.0000 300.0000  5.94050264    10
CTC2_L_00603008-08
1 28154U 24862XV  26037.47799769  .00000000  00000+0  00000-0 0  9997
2 28154  70.0000 210.0000 0000000   0.0000 336.0000  5.94050264    10
CTC2_L_00603008-09
1 28155U 25439YC  26037.47799769  .00000000  00000+0  00000-0 0  9999
2 28155  70.0000 210.0000 0000000   0.0000  12.0000  5.94050264    12
CTC2_L_00603008-10
1 28156U 25203CA  26037.47799769  .00000000  00000+0  00000-0 0  9999
2 28156  70.0000 210.0000 0000000   0.0000  48.0000  5.94050264    12
CTC2_L_00603009-01
1 28157U 22490ZQ  26037.47799769  .00000000  00000+0  00000-0 0  9995
2 28157  70.0000 240.0000 0000000   0.0000  96.0000  5.94050264    19
CTC2_L_00603009-02
1 28158U 23201LO  26037.47799769  .00000000  00000+0  00000-0 0  9997
2 28158  70.0000 240.0000 0000000   0.0000 132.0000  5.94050264    11
CTC2_L_00603009-03
1 28159U 25046FR  26037.47799769  .00000000  00000+0  00000-0 0  9997
2 28159  70.0000 240.0000 0000000   0.0000 168.0000  5.94050264    11
CTC2_L_00603009-04
1 28160U 24631DS  26037.47799769  .00000000  00000+0  00000-0 0  9998
2 28160  70.0000 240.0000 0000000   0.0000 204.0000  5.94050264    14
CTC2_L_00603009-05
1 28161U 25784MR  26037.47799769  .00000000  00000+0  00000-0 0  9999
2 28161  70.0000 240.0000 0000000   0.0000 240.0000  5.94050264    15
CTC2_L_00603009-06
1 28162U 26407LL  26037.47799769  .00000000  00000+0  00000-0 0  9993
2 28162  70.0000 240.0000 0000000   0.0000 276.0000  5.94050264    15
CTC2_L_00603009-07
1 28163U 22404ZV  26037.47799769  .00000000  00000+0  00000-0 0  9997
2 28163  70.0000 240.0000 0000000   0.0000 312.0000  5.94050264    17
CTC2_L_00603009-08
1 28164U 23751UL  26037.47799769  .00000000  00000+0  00000-0 0  9994
2 28164  70.0000 240.0000 0000000   0.0000 348.0000  5.94050264    17
CTC2_L_00603009-09
1 28165U 23507NO  26037.47799769  .00000000  00000+0  00000-0 0  9994
2 28165  70.0000 240.0000 0000000   0.0000  24.0000  5.94050264    19
CTC2_L_00603009-10
1 28166U 23979YT  26037.47799769  .00000000  00000+0  00000-0 0  9998
2 28166  70.0000 240.0000 0000000   0.0000  60.0000  5.94050264    10
CTC2_L_00603010-01
1 28167U 26321YM  26037.47799769  .00000000  00000+0  00000-0 0  9993
2 28167  70.0000 270.0000 0000000   0.0000 108.0000  5.94050264    17
CTC2_L_00603010-02
1 28168U 25131BK  26037.47799769  .00000000  00000+0  00000-0 0  9992
2 28168  70.0000 270.0000 0000000   0.0000 144.0000  5.94050264    18
CTC2_L_00603010-03
1 28169U 24782L   26037.47799769  .00000000  00000+0  00000-0 0  9994
2 28169  70.0000 270.0000 0000000   0.0000 180.0000  5.94050264    19
CTC2_L_00603010-04
1 28170U 23531XQ  26037.47799769  .00000000  00000+0  00000-0 0  9997
2 28170  70.0000 270.0000 0000000   0.0000 216.0000  5.94050264    11
CTC2_L_00603010-05
1 28171U 25097RF  26037.47799769  .00000000  00000+0  00000-0 0  9997
2 28171  70.0000 270.0000 0000000   0.0000 252.0000  5.94050264    12
CTC2_L_00603010-06
1 28172U 26732OQ  26037.47799769  .00000000  00000+0  00000-0 0  9995
2 28172  70.0000 270.0000 0000000   0.0000 288.0000  5.94050264    12
CTC2_L_00603010-07
1 28173U 22620YS  26037.47799769  .00000000  00000+0  00000-0 0  9998
2 28173  70.0000 270.0000 0000000   0.0000 324.0000  5.94050264    14
CTC2_L_00603010-08
1 28174U 22787RC  26037.47799769  .00000000  00000+0  00000-0 0  9993
2 28174  70.0000 270.0000 0000000   0.0000   0.0000  5.94050264    16
CTC2_L_00603010-09
1 28175U 26786LE  26037.47799769  .00000000  00000+0  00000-0 0  9997
2 28175  70.0000 270.0000 0000000   0.0000  36.0000  5.94050264    16
CTC2_L_00603010-10
1 28176U 24884YN  26037.47799769  .00000000  00000+0  00000-0 0  9995
2 28176  70.0000 270.0000 0000000   0.0000  72.0000  5.94050264    17
CTC2_L_00603011-01
1 28177U 22931HY  26037.47799769  .00000000  00000+0  00000-0 0  9997
2 28177  70.0000 300.0000 0000000   0.0000 120.0000  5.94050264    16
CTC2_L_00603011-02
1 28178U 22636JD  26037.47799769  .00000000  00000+0  00000-0 0  9990
2 28178  70.0000 300.0000 0000000   0.0000 156.0000  5.94050264    16
CTC2_L_00603011-03
1 28179U 23655FH  26037.47799769  .00000000  00000+0  00000-0 0  9993
2 28179  70.0000 300.0000 0000000   0.0000 192.0000  5.94050264    17
CTC2_L_00603011-04
1 28180U 26870XR  26037.47799769  .00000000  00000+0  00000-0 0  9997
2 28180  70.0000 300.0000 0000000   0.0000 228.0000  5.94050264    19
CTC2_L_00603011-05
1 28181U 23459XL  26037.47799769  .00000000  00000+0  00000-0 0  9998
2 28181  70.0000 300.0000 0000000   0.0000 264.0000  5.94050264    10
CTC2_L_00603011-06
1 28182U 24013WS  26037.47799769  .00000000  00000+0  00000-0 0  9996
2 28182  70.0000 300.0000 0000000   0.0000 300.0000  5.94050264    12
CTC2_L_00603011-07
1 28183U 22414NV  26037.47799769  .00000000  00000+0  00000-0 0  9990
2 28183  70.0000 300.0000 0000000   0.0000 336.0000  5.94050264    12
CTC2_L_00603011-08
1 28184U 23376QI  26037.47799769  .00000000  00000+0  00000-0 0  9999
2 28184  70.0000 300.0000 0000000   0.0000  12.0000  5.94050264    14
CTC2_L_00603011-09
1 28185U 23416NA  26037.47799769  .00000000  00000+0  00000-0 0  9995
2 28185  70.0000 300.0000 0000000   0.0000  48.0000  5.94050264    14
CTC2_L_00603011-10
1 28186U 26291EG  26037.47799769  .00000000  00000+0  00000-0 0  9990
2 28186  70.0000 300.0000 0000000   0.0000  84.0000  5.94050264    15
CTC2_L_00603012-01
1 28187U 22830OQ  26037.47799769  .00000000  00000+0  00000-0 0  9996
2 28187  70.0000 330.0000 0000000   0.0000 132.0000  5.94050264    13
CTC2_L_00603012-02
1 28188U 26970CL  26037.47799769  .00000000  00000+0  00000-0 0  9996
2 28188  70.0000 330.0000 0000000   0.0000 168.0000  5.94050264    13
CTC2_L_00603012-03
1 28189U 23688UZ  26037.47799769  .00000000  00000+0  00000-0 0  9990
2 28189  70.0000 330.0000 0000000   0.0000 204.0000  5.94050264    15
CTC2_L_00603012-04
1 28190U 25220XD  26037.47799769  .00000000  00000+0  00000-0 0  9996
2 28190  70.0000 330.0000 0000000   0.0000 240.0000  5.94050264    17
CTC2_L_00603012-05
1 28191U 22958Y   26037.47799769  .00000000  00000+0  00000-0 0  9992
2 28191  70.0000 330.0000 0000000   0.0000 276.0000  5.94050264    17
CTC2_L_00603012-06
1 28192U 22889DB  26037.47799769  .00000000  00000+0  00000-0 0  9996
2 28192  70.0000 330.0000 0000000   0.0000 312.0000  5.94050264    19
CTC2_L_00603012-07
1 28193U 26638OF  26037.47799769  .00000000  00000+0  00000-0 0  9993
2 28193  70.0000 330.0000 0000000   0.0000 348.0000  5.94050264    19
CTC2_L_00603012-08
1 28194U 23356HL  26037.47799769  .00000000  00000+0  00000-0 0  9998
2 28194  70.0000 330.0000 0000000   0.0000  24.0000  5.94050264    11
CTC2_L_00603012-09
1 28195U 26622HI  26037.47799769  .00000000  00000+0  00000-0 0  9998
2 28195  70.0000 330.0000 0000000   0.0000  60.0000  5.94050264    12
CTC2_L_00603012-10
1 28196U 23444KP  26037.47799769  .00000000  00000+0  00000-0 0  9998
2 28196  70.0000 330.0000 0000000   0.0000  96.0000  5.94050264    12
